IRIDIUM 159             
1 43578U 18061K   24150.65979829  .00000319  00000+0  10673-3 0  9992
2 43578  86.3986   9.5277 0002454  84.1173 276.0302 14.34218034306096
IRIDIUM 180             
1 43922U 19002A   24150.79882745  .00000412  00000+0  13994-3 0  9999
2 43922  86.3944 306.3532 0002175  85.2351 274.9093 14.34217205281720
IRIDIUM 176             
1 43923U 19002B   24150.90253358  .00001525  00000+0  23791-3 0  9997
2 43923  86.6071 306.3325 0002379  87.2978 272.8511 14.72246244289152
IRIDIUM 168             
1 43924U 19002C   24150.86225757  .00000436  00000+0  14861-3 0  9993
2 43924  86.3945 306.3825 0002187  91.3588 268.7858 14.34218319281717
IRIDIUM 173             
1 43925U 19002D   24150.91934044  .00000184  00000+0  58553-4 0  9993
2 43925  86.3941 306.2783 0002203  89.6898 270.4550 14.34218083281705
IRIDIUM 169             
1 43926U 19002E   24150.90170418  .00000174  00000+0  50400-4 0  9992
2 43926  86.4218 337.9113 0000937  17.2389 342.8840 14.38587219282640
IRIDIUM 172             
1 43927U 19002F   24150.91299729  .00000136  00000+0  41540-4 0  9994
2 43927  86.3941 306.2866 0002246  89.5005 270.6448 14.34218366281718
IRIDIUM 175             
1 43928U 19002G   24150.89680149  .00001589  00000+0  24811-3 0  9996
2 43928  86.1493 280.5017 0001890  88.2974 271.8459 14.72240990289146
